[{"OBJECT_NAME":"STRAND-1","OBJECT_ID":"2013-009E","EPOCH":"2026-03-09T21:53:59.161920","MEAN_MOTION":14.37095119,"ECCENTRICITY":0.00090423,"INCLINATION":98.3888,"RA_OF_ASC_NODE":251.5986,"ARG_OF_PERICENTER":161.0822,"MEAN_ANOMALY":199.0703,"EPHEMERIS_TYPE":0,"CLASSIFICATION_TYPE":"U","NORAD_CAT_ID":39090,"ELEMENT_SET_NO":999,"REV_AT_EPOCH":68280,"BSTAR":0.00017106883,"MEAN_MOTION_DOT":4.66e-6,"MEAN_MOTION_DDOT":0},{"OBJECT_NAME":"FENGYUN 1C DEB","OBJECT_ID":"1999-025CRX","EPOCH":"2026-03-09T06:54:58.470336","MEAN_MOTION":14.29855487,"ECCENTRICITY":0.00702643,"INCLINATION":99.0593,"RA_OF_ASC_NODE":195.0683,"ARG_OF_PERICENTER":144.4937,"MEAN_ANOMALY":246.4993,"EPHEMERIS_TYPE":0,"CLASSIFICATION_TYPE":"U","NORAD_CAT_ID":32129,"ELEMENT_SET_NO":999,"REV_AT_EPOCH":95463,"BSTAR":0.0034125635,"MEAN_MOTION_DOT":8.981e-5,"MEAN_MOTION_DDOT":0}]
